[{"OBJECT_NAME":"STARLINK-6065","OBJECT_ID":"2023-078AX","EPOCH":"2026-03-09T22:30:16.756416","MEAN_MOTION":14.98329897,"ECCENTRICITY":0.00029586,"INCLINATION":69.9999,"RA_OF_ASC_NODE":323.7173,"ARG_OF_PERICENTER":270.2729,"MEAN_ANOMALY":89.8091,"EPHEMERIS_TYPE":0,"CLASSIFICATION_TYPE":"U","NORAD_CAT_ID":56812,"ELEMENT_SET_NO":999,"REV_AT_EPOCH":15321,"BSTAR":5.9991108e-5,"MEAN_MOTION_DOT":6.23e-6,"MEAN_MOTION_DDOT":0},{"OBJECT_NAME":"UM5-EOSAT","OBJECT_ID":"2024-149CR","EPOCH":"2026-03-09T17:21:09.122400","MEAN_MOTION":15.00894746,"ECCENTRICITY":0.00087192,"INCLINATION":97.6855,"RA_OF_ASC_NODE":148.6787,"ARG_OF_PERICENTER":107.8964,"MEAN_ANOMALY":252.3212,"EPHEMERIS_TYPE":0,"CLASSIFICATION_TYPE":"U","NORAD_CAT_ID":60555,"ELEMENT_SET_NO":999,"REV_AT_EPOCH":8529,"BSTAR":0.00036077282,"MEAN_MOTION_DOT":4.537e-5,"MEAN_MOTION_DDOT":0}]
